*******************************************************************************
JPL/HORIZONS               1054 Forsytia (1925 WD)         2023-Sep-04 11:09:56
Rec #:    1054 (+COV) Soln.date: 2023-Aug-21_12:25:51   # obs: 8566 (1907-2023)
 
IAU76/J2000 helio. ecliptic osc. elements (au, days, deg., period=Julian yrs):
 
  EPOCH=  2457557.5 ! 2016-Jun-18.00 (TDB)         Residual RMS= .2436
   EC= .1362292686552976   QR= 2.523039646472253   TP= 2457162.7597113661
   OM= 85.9438075455874    W=  293.7990031058448   IN= 10.85031699044334
   A= 2.920959873859619    MA= 77.93403132960394   ADIST= 3.318880101246986
   PER= 4.99225            N= .197431156           ANGMOM= .029125706
   DAN= 2.71737            DDN= 3.03351            L= 20.1267449
   B= -9.9179017           MOID= 1.55094004        TP= 2015-May-20.2597113661
 
Asteroid physical parameters (km, seconds, rotational period in hours):
   GM= n.a.                RAD= 23.89              ROTPER= 7.65
   H= 10.45                G= .150                 B-V= n.a.
                           ALBEDO= .035            STYP= n.a.

ASTEROID comments: 
1: soln ref.= JPL#60, OCC=0
2: source=ORB
*******************************************************************************


*******************************************************************************
Ephemeris / API_USER Mon Sep  4 11:09:56 2023 Pasadena, USA      / Horizons
*******************************************************************************
Target body name: 1054 Forsytia (1925 WD)         {source: JPL#60}
Center body name: Solar System Barycenter (0)     {source: DE441}
Center-site name: BODY CENTER
*******************************************************************************
Start time      : A.D. 2023-Aug-12 00:00:00.0000 TDB
Stop  time      : A.D. 2023-Aug-13 00:00:00.0000 TDB
Step-size       : 2880 minutes
*******************************************************************************
Center geodetic : 0.0, 0.0, 0.0                   {E-lon(deg),Lat(deg),Alt(km)}
Center cylindric: 0.0, 0.0, 0.0                   {E-lon(deg),Dxy(km),Dz(km)}
Center radii    : (undefined)
Small perturbers: Yes                             {source: SB441-N16}
Output units    : KM-S
Calendar mode   : Mixed Julian/Gregorian
Output type     : GEOMETRIC cartesian states
Output format   : 2 (position and velocity)
Reference frame : Ecliptic of J2000.0
*******************************************************************************
Initial IAU76/J2000 heliocentric ecliptic osculating elements (au, days, deg.):
  EPOCH=  2457557.5 ! 2016-Jun-18.00 (TDB)         Residual RMS= .2436         
   EC= .1362292686552976   QR= 2.523039646472253   TP= 2457162.7597113661      
   OM= 85.9438075455874    W=  293.7990031058448   IN= 10.85031699044334       
  Equivalent ICRF heliocentric cartesian coordinates (au, au/d):
   X=-1.120305268825979E+00  Y= 2.335126555088040E+00  Z= 1.285069961331822E+00
  VX=-9.627346134803753E-03 VY=-3.221659651603383E-03 VZ= 5.691103265812035E-04
Asteroid physical parameters (km, seconds, rotational period in hours):        
   GM= n.a.                RAD= 23.89              ROTPER= 7.65                
   H= 10.45                G= .150                 B-V= n.a.                   
                           ALBEDO= .035            STYP= n.a.                  
*******************************************************************************
JDTDB
   X     Y     Z
   VX    VY    VZ
*******************************************************************************
$$SOE
2460168.500000000 = A.D. 2023-Aug-12 00:00:00.0000 TDB 
 X =-2.253168880762232E+08 Y =-4.216440046867785E+08 Z = 3.693095383093508E+07
 VX= 1.433328556540792E+01 VY=-6.154640623715530E+00 VZ=-2.831429060998077E+00
$$EOE
*******************************************************************************
 
TIME

  Barycentric Dynamical Time ("TDB" or T_eph) output was requested. This
continuous coordinate time is equivalent to the relativistic proper time
of a clock at rest in a reference frame co-moving with the solar system
barycenter but outside the system's gravity well. It is the independent
variable in the solar system relativistic equations of motion.

  TDB runs at a uniform rate of one SI second per second and is independent
of irregularities in Earth's rotation.
 
CALENDAR SYSTEM

  Mixed calendar mode was active such that calendar dates after AD 1582-Oct-15
(if any) are in the modern Gregorian system. Dates prior to 1582-Oct-5 (if any)
are in the Julian calendar system, which is automatically extended for dates
prior to its adoption on 45-Jan-1 BC.  The Julian calendar is useful for
matching historical dates. The Gregorian calendar more accurately corresponds
to the Earth's orbital motion and seasons. A "Gregorian-only" calendar mode is
available if such physical events are the primary interest.

REFERENCE FRAME AND COORDINATES

  Ecliptic at the standard reference epoch

    Reference epoch: J2000.0
    X-Y plane: adopted Earth orbital plane at the reference epoch
               Note: IAU76 obliquity of 84381.448 arcseconds wrt ICRF X-Y plane
    X-axis   : ICRF
    Z-axis   : perpendicular to the X-Y plane in the directional (+ or -) sense
               of Earth's north pole at the reference epoch.

  Symbol meaning:

    JDTDB    Julian Day Number, Barycentric Dynamical Time
      X      X-component of position vector (km)
      Y      Y-component of position vector (km)
      Z      Z-component of position vector (km)
      VX     X-component of velocity vector (km/sec)                           
      VY     Y-component of velocity vector (km/sec)                           
      VZ     Z-component of velocity vector (km/sec)                           

ABERRATIONS AND CORRECTIONS

 Geometric state vectors have NO corrections or aberrations applied.

Computations by ...

    Solar System Dynamics Group, Horizons On-Line Ephemeris System
    4800 Oak Grove Drive, Jet Propulsion Laboratory
    Pasadena, CA  91109   USA

    General site: https://ssd.jpl.nasa.gov/
    Mailing list: https://ssd.jpl.nasa.gov/email_list.html
    System news : https://ssd.jpl.nasa.gov/horizons/news.html
    User Guide  : https://ssd.jpl.nasa.gov/horizons/manual.html
    Connect     : browser        https://ssd.jpl.nasa.gov/horizons/app.html#/x
                  API            https://ssd-api.jpl.nasa.gov/doc/horizons.html
                  command-line   telnet ssd.jpl.nasa.gov 6775
                  e-mail/batch   https://ssd.jpl.nasa.gov/ftp/ssd/hrzn_batch.txt
                  scripts        https://ssd.jpl.nasa.gov/ftp/ssd/SCRIPTS
    Author      : Jon.D.Giorgini@jpl.nasa.gov
*******************************************************************************
